{"type": "FeatureCollection", "features": [ {"type": "Feature", "properties": {"norad_id": 39778, "name": "IRIDIUM 33 DEB", "group": "iridium-33-debris", "lat": -75.33457319625529, "lon": -125.04349233468128, "alt_km": 722.4957075839757, "timestamp": "2025-12-17T23:38:07.239360+00:00", "meta": {"OBJECT_NAME": "IRIDIUM 33 DEB", "OBJECT_ID": "1997-051AAK", "EPOCH": "2025-12-17T02:38:47.414400", "MEAN_MOTION": 14.54293751, "ECCENTRICITY": 0.00075108, "INCLINATION": 86.3779, "RA_OF_ASC_NODE": 41.3287, "ARG_OF_PERICENTER": 28.8766, "MEAN_ANOMALY": 331.2855, "EPHEMERIS_TYPE": 0, "CLASSIFICATION_TYPE": "U", "NORAD_CAT_ID": 39778, "ELEMENT_SET_NO": 999, "REV_AT_EPOCH": 60756, "BSTAR": 0.00062840699, "MEAN_MOTION_DOT": 2.685e-05, "MEAN_MOTION_DDOT": 0}, "tle": {"line1": "1 39778U 97051AAK 25351.11027100  .00002685  00000+0  62841-3 0  9998", "line2": "2 39778  86.3779  41.3287 0007510  28.8766 331.2855 14.54293751607563"}}, "geometry": {"type": "Point", "coordinates": [-125.04349233468128, -75.33457319625529]}}, {"type": "Feature", "properties": {"norad_id": 39781, "name": "IRIDIUM 33 DEB", "group": "iridium-33-debris", "lat": 81.36949266375872, "lon": 51.101381787146586, "alt_km": 932.9833287001993, "timestamp": "2025-12-17T23:38:07.239371+00:00", "meta": {"OBJECT_NAME": "IRIDIUM 33 DEB", "OBJECT_ID": "1997-051AAN", "EPOCH": "2025-12-15T00:15:44.903232", "MEAN_MOTION": 14.2070789, "ECCENTRICITY": 0.01756389, "INCLINATION": 86.371, "RA_OF_ASC_NODE": 257.043, "ARG_OF_PERICENTER": 266.0338, "MEAN_ANOMALY": 111.7662, "EPHEMERIS_TYPE": 0, "CLASSIFICATION_TYPE": "U", "NORAD_CAT_ID": 39781, "ELEMENT_SET_NO": 999, "REV_AT_EPOCH": 8139, "BSTAR": 0.0031777078, "MEAN_MOTION_DOT": 8.021e-05, "MEAN_MOTION_DDOT": 0}, "tle": {"line1": "1 39781U 97051AAN 25349.01093638  .00008021  00000+0  31777-2 0  9990", "line2": "2 39781  86.3710 257.0430 0175638 266.0338 111.7662 14.20707890 81397"}}, "geometry": {"type": "Point", "coordinates": [51.101381787146586, 81.36949266375872]}}, {"type": "Feature", "properties": {"norad_id": 40996, "name": "IRIDIUM 33 DEB", "group": "iridium-33-debris", "lat": -74.8988266537684, "lon": -167.3651073403027, "alt_km": 592.1829185457455, "timestamp": "2025-12-17T23:38:07.239381+00:00", "meta": {"OBJECT_NAME": "IRIDIUM 33 DEB", "OBJECT_ID": "1997-051ABJ", "EPOCH": "2025-12-16T11:52:02.455968", "MEAN_MOTION": 14.96488968, "ECCENTRICITY": 0.00116474, "INCLINATION": 86.3523, "RA_OF_ASC_NODE": 359.6563, "ARG_OF_PERICENTER": 53.6369, "MEAN_ANOMALY": 97.9522, "EPHEMERIS_TYPE": 0, "CLASSIFICATION_TYPE": "U", "NORAD_CAT_ID": 40996, "ELEMENT_SET_NO": 999, "REV_AT_EPOCH": 62544, "BSTAR": 0.0019797945, "MEAN_MOTION_DOT": 0.00022579, "MEAN_MOTION_DDOT": 0}, "tle": {"line1": "1 40996U 97051ABJ 25350.49447287  .00022579  00000+0  19798-2 0  9990", "line2": "2 40996  86.3523 359.6563 0011647  53.6369  97.9522 14.96488968625443"}}, "geometry": {"type": "Point", "coordinates": [-167.3651073403027, -74.8988266537684]}}, {"type": "Feature", "properties": {"norad_id": 40998, "name": "IRIDIUM 33 DEB", "group": "iridium-33-debris", "lat": 76.95076496467993, "lon": -144.4219166567985, "alt_km": 728.9283262709914, "timestamp": "2025-12-17T23:38:07.239391+00:00", "meta": {"OBJECT_NAME": "IRIDIUM 33 DEB", "OBJECT_ID": "1997-051ABL", "EPOCH": "2025-12-14T22:36:58.178592", "MEAN_MOTION": 14.45106117, "ECCENTRICITY": 0.00094247, "INCLINATION": 86.383, "RA_OF_ASC_NODE": 52.7149, "ARG_OF_PERICENTER": 78.6428, "MEAN_ANOMALY": 45.8037, "EPHEMERIS_TYPE": 0, "CLASSIFICATION_TYPE": "U", "NORAD_CAT_ID": 40998, "ELEMENT_SET_NO": 999, "REV_AT_EPOCH": 6713, "BSTAR": 0.0004149731, "MEAN_MOTION_DOT": 1.471e-05, "MEAN_MOTION_DDOT": 0}, "tle": {"line1": "1 40998U 97051ABL 25348.94234003  .00001471  00000+0  41497-3 0  9999", "line2": "2 40998  86.3830  52.7149 0009424  78.6428  45.8037 14.45106117 67136"}}, "geometry": {"type": "Point", "coordinates": [-144.4219166567985, 76.95076496467993]}}, {"type": "Feature", "properties": {"norad_id": 46435, "name": "IRIDIUM 33 DEB", "group": "iridium-33-debris", "lat": 86.16838765901133, "lon": -64.33006808794131, "alt_km": 921.0772205099674, "timestamp": "2025-12-17T23:38:07.239402+00:00", "meta": {"OBJECT_NAME": "IRIDIUM 33 DEB", "OBJECT_ID": "1997-051ABN", "EPOCH": "2025-12-13T20:22:29.882208", "MEAN_MOTION": 14.32399442, "ECCENTRICITY": 0.0208315, "INCLINATION": 86.2839, "RA_OF_ASC_NODE": 193.4722, "ARG_OF_PERICENTER": 272.7642, "MEAN_ANOMALY": 103.0816, "EPHEMERIS_TYPE": 0, "CLASSIFICATION_TYPE": "U", "NORAD_CAT_ID": 46435, "ELEMENT_SET_NO": 999, "REV_AT_EPOCH": 7932, "BSTAR": 0.009141333, "MEAN_MOTION_DOT": 0.00031559, "MEAN_MOTION_DDOT": 0}, "tle": {"line1": "1 46435U 97051ABN 25347.84895697  .00031559  00000+0  91413-2 0  9993", "line2": "2 46435  86.2839 193.4722 0208315 272.7642 103.0816 14.32399442 79328"}}, "geometry": {"type": "Point", "coordinates": [-64.33006808794131, 86.16838765901133]}}, {"type": "Feature", "properties": {"norad_id": 46734, "name": "IRIDIUM 33 DEB", "group": "iridium-33-debris", "lat": 78.10621211621414, "lon": 162.4848943720094, "alt_km": 766.6729649647241, "timestamp": "2025-12-17T23:38:07.239412+00:00", "meta": {"OBJECT_NAME": "IRIDIUM 33 DEB", "OBJECT_ID": "1997-051ABR", "EPOCH": "2025-12-16T07:16:35.707584", "MEAN_MOTION": 14.41911222, "ECCENTRICITY": 0.00381217, "INCLINATION": 86.2633, "RA_OF_ASC_NODE": 1.2995, "ARG_OF_PERICENTER": 323.6514, "MEAN_ANOMALY": 53.8246, "EPHEMERIS_TYPE": 0, "CLASSIFICATION_TYPE": "U", "NORAD_CAT_ID": 46734, "ELEMENT_SET_NO": 999, "REV_AT_EPOCH": 63062, "BSTAR": 0.00075238, "MEAN_MOTION_DOT": 2.503e-05, "MEAN_MOTION_DDOT": 0}, "tle": {"line1": "1 46734U 97051ABR 25350.30319106  .00002503  00000+0  75238-3 0  9991", "line2": "2 46734  86.2633   1.2995 0038121 323.6514  53.8246 14.41911222630621"}}, "geometry": {"type": "Point", "coordinates": [162.4848943720094, 78.10621211621414]}}, {"type": "Feature", "properties": {"norad_id": 46965, "name": "IRIDIUM 33 DEB", "group": "iridium-33-debris", "lat": -45.59180307783988, "lon": 162.1234176297314, "alt_km": 698.7826093731064, "timestamp": "2025-12-17T23:38:07.239423+00:00", "meta": {"OBJECT_NAME": "IRIDIUM 33 DEB", "OBJECT_ID": "1997-051ABX", "EPOCH": "2025-12-13T10:45:20.165184", "MEAN_MOTION": 14.60307321, "ECCENTRICITY": 0.00180716, "INCLINATION": 86.336, "RA_OF_ASC_NODE": 340.3836, "ARG_OF_PERICENTER": 330.9129, "MEAN_ANOMALY": 180.178, "EPHEMERIS_TYPE": 0, "CLASSIFICATION_TYPE": "U", "NORAD_CAT_ID": 46965, "ELEMENT_SET_NO": 999, "REV_AT_EPOCH": 62278, "BSTAR": 0.0013493066, "MEAN_MOTION_DOT": 6.553e-05, "MEAN_MOTION_DDOT": 0}, "tle": {"line1": "1 46965U 97051ABX 25347.44815006  .00006553  00000+0  13493-2 0  9991", "line2": "2 46965  86.3360 340.3836 0018071 330.9129 180.1780 14.60307321622786"}}, "geometry": {"type": "Point", "coordinates": [162.1234176297314, -45.59180307783988]}}, {"type": "Feature", "properties": {"norad_id": 46971, "name": "IRIDIUM 33 DEB", "group": "iridium-33-debris", "lat": -60.13535579162261, "lon": -35.75308791948579, "alt_km": 577.3981251278465, "timestamp": "2025-12-17T23:38:07.239433+00:00", "meta": {"OBJECT_NAME": "IRIDIUM 33 DEB", "OBJECT_ID": "1997-051ACD", "EPOCH": "2025-12-16T06:30:44.080992", "MEAN_MOTION": 14.9823489, "ECCENTRICITY": 0.00028594, "INCLINATION": 86.3389, "RA_OF_ASC_NODE": 331.4549, "ARG_OF_PERICENTER": 295.1976, "MEAN_ANOMALY": 128.6572, "EPHEMERIS_TYPE": 0, "CLASSIFICATION_TYPE": "U", "NORAD_CAT_ID": 46971, "ELEMENT_SET_NO": 999, "REV_AT_EPOCH": 64283, "BSTAR": 0.0019357039, "MEAN_MOTION_DOT": 0.00023062, "MEAN_MOTION_DDOT": 0}, "tle": {"line1": "1 46971U 97051ACD 25350.27134353  .00023062  00000+0  19357-2 0  9991", "line2": "2 46971  86.3389 331.4549 0002859 295.1976 128.6572 14.98234890642830"}}, "geometry": {"type": "Point", "coordinates": [-35.75308791948579, -60.13535579162261]}}, {"type": "Feature", "properties": {"norad_id": 46974, "name": "IRIDIUM 33 DEB", "group": "iridium-33-debris", "lat": 1.644662987973564, "lon": 103.09171459060858, "alt_km": 813.0271945560198, "timestamp": "2025-12-17T23:38:07.239444+00:00", "meta": {"OBJECT_NAME": "IRIDIUM 33 DEB", "OBJECT_ID": "1997-051ACG", "EPOCH": "2025-12-14T14:09:41.074272", "MEAN_MOTION": 14.44439168, "ECCENTRICITY": 0.00956816, "INCLINATION": 86.2983, "RA_OF_ASC_NODE": 104.4675, "ARG_OF_PERICENTER": 181.0289, "MEAN_ANOMALY": 179.0732, "EPHEMERIS_TYPE": 0, "CLASSIFICATION_TYPE": "U", "NORAD_CAT_ID": 46974, "ELEMENT_SET_NO": 999, "REV_AT_EPOCH": 57535, "BSTAR": 0.0034715296, "MEAN_MOTION_DOT": 0.00012692, "MEAN_MOTION_DDOT": 0}, "tle": {"line1": "1 46974U 97051ACG 25348.59005873  .00012692  00000+0  34715-2 0  9992", "line2": "2 46974  86.2983 104.4675 0095681 181.0289 179.0732 14.44439168575351"}}, "geometry": {"type": "Point", "coordinates": [103.09171459060858, 1.644662987973564]}}, {"type": "Feature", "properties": {"norad_id": 46979, "name": "IRIDIUM 33 DEB", "group": "iridium-33-debris", "lat": 35.733004174458635, "lon": -136.52741799213342, "alt_km": 586.1817472482799, "timestamp": "2025-12-17T23:38:07.239456+00:00", "meta": {"OBJECT_NAME": "IRIDIUM 33 DEB", "OBJECT_ID": "1997-051ACM", "EPOCH": "2025-12-16T09:54:46.645632", "MEAN_MOTION": 14.89791601, "ECCENTRICITY": 0.00276719, "INCLINATION": 86.3345, "RA_OF_ASC_NODE": 46.8463, "ARG_OF_PERICENTER": 209.1234, "MEAN_ANOMALY": 150.8451, "EPHEMERIS_TYPE": 0, "CLASSIFICATION_TYPE": "U", "NORAD_CAT_ID": 46979, "ELEMENT_SET_NO": 999, "REV_AT_EPOCH": 35483, "BSTAR": 0.0025575323, "MEAN_MOTION_DOT": 0.00024787, "MEAN_MOTION_DDOT": 0}, "tle": {"line1": "1 46979U 97051ACM 25350.41303988  .00024787  00000+0  25575-2 0  9991", "line2": "2 46979  86.3345  46.8463 0027671 209.1234 150.8451 14.89791601354834"}}, "geometry": {"type": "Point", "coordinates": [-136.52741799213342, 35.733004174458635]}}]}